[{"OBJECT_NAME":"STARLINK-3610","OBJECT_ID":"2022-017AW","EPOCH":"2026-03-09T23:13:28.585344","MEAN_MOTION":15.08831625,"ECCENTRICITY":0.00014559,"INCLINATION":53.2194,"RA_OF_ASC_NODE":327.8761,"ARG_OF_PERICENTER":92.7042,"MEAN_ANOMALY":267.4116,"EPHEMERIS_TYPE":0,"CLASSIFICATION_TYPE":"U","NORAD_CAT_ID":51812,"ELEMENT_SET_NO":999,"REV_AT_EPOCH":22412,"BSTAR":1.6780126e-5,"MEAN_MOTION_DOT":-2.1e-7,"MEAN_MOTION_DDOT":0},{"OBJECT_NAME":"CSC-1","OBJECT_ID":"2023-155G","EPOCH":"2026-03-09T17:46:02.342496","MEAN_MOTION":15.1003596,"ECCENTRICITY":0.00075041,"INCLINATION":97.5446,"RA_OF_ASC_NODE":139.7305,"ARG_OF_PERICENTER":212.9992,"MEAN_ANOMALY":147.077,"EPHEMERIS_TYPE":0,"CLASSIFICATION_TYPE":"U","NORAD_CAT_ID":58022,"ELEMENT_SET_NO":999,"REV_AT_EPOCH":13272,"BSTAR":0.00054556609,"MEAN_MOTION_DOT":8.819e-5,"MEAN_MOTION_DDOT":0}]
